#dP2018 11  9  0  0  0.00000000      96 __u+U ITR00 FIT  IAC
## 2026 432000.00000000   900.00000000 58431 0.0000000000000
+   91   C01C02C03C04C05C06C07C08C09C10C11C12C13C14E01E02E03
+        E04E05E07E08E09E11E12E14E18E19E21E24E25E26E27E30G01
+        G02G03G04G05G06G07G08G09G10G11G12G13G14G15G16G17G18
+        G19G20G21G22G23G24G25G26G27G28G29G30G31G32J01J02J03
+        R01R02R03R04R05R07R08R09R10R11R13R14R15R16R17R18R19
+        R20R21R22R23R24R26  0  0  0  0  0  0  0  0  0  0  0
++         0  0  0  0  0  0  0  0  0  0  0  0  0  0  0  0  0
++         0  0  0  0  0  0  0  0  0  0  0  0  0  0  0  0  0
++         0  0  0  0  0  0  0  0  0  0  0  0  0  0  0  0  0
++         0  0  0  0  0  0  0  0  0  0  0  0  0  0  0  0  0
++         0  0  0  0  0  0  0  0  0  0  0  0  0  0  0  0  0
++         0  0  0  0  0  0  0  0  0  0  0  0  0  0  0  0  0
%c M  cc GPS ccc cccc cccc cccc cccc ccccc ccccc ccccc ccccc
%c cc cc ccc ccc cccc cccc cccc cccc ccccc ccccc ccccc ccccc
%f  0.0000000  0.000000000  0.00000000000  0.000000000000000
%f  0.0000000  0.000000000  0.00000000000  0.000000000000000
%i    0    0    0    0      0      0      0      0         0
%i    0    0    0    0      0      0      0      0         0
/*                                                          
/*   RSA / INFORMATION & ANALYSIS CENTER (IAC) OF MCC       
/*   ULTRA-RAPID DETERMINATION                              
/* PCV:IGS14_2022 OL/AL:FES2004  NONE     YN ORB:CoN CLK:CoN
*  2018 11 09  7 15  0.00000000
PC01 -32340.605056  27047.454095  -1044.254893   -136.103464
PC02   4465.318633  41899.373183    367.141600    -86.275772
PC03 -14660.716401  39550.991381   -528.195767    -82.318185
PC04 -39646.414677  14359.472968   -569.199209    -18.973201
PC05  21925.162855  36016.960180    620.255110    153.317174
PC06 -11641.645240  21964.135041  34345.329708     31.535786
PC07 -25122.227762  30095.945589 -15975.343154   -133.995739
PC08 -10977.273115  36624.891598 -17394.644527     26.076994
PC09   6604.984230  29763.262986  29437.504401    269.000845
PC10 -10539.280736  30935.451960 -26688.084615   -223.325307
PC11  15845.777484  22632.282896   3660.287102    -33.825216
PC12   2964.520647  23673.860589 -14329.273067    200.495812
PC13  -1422.409938  41911.951147  -2445.933449   -367.877196
PC14  16007.283900  12995.043073  18878.425038    582.417207
PE01 -19547.425669  -2753.484517  22066.170378   -474.046908
PE02  19573.460790   2704.027468 -22033.747668     34.444194
PE03  27342.787067  11274.526165    983.626706    -97.682016
PE04 -24550.795076   2948.572106  16270.513942   -154.927732
PE05  14137.184819  18983.933186  17768.814044    162.598007
PE07   7287.994126 -15561.509783 -24100.057175    -72.017703
PE08  24449.371281  -3125.779213 -16382.791374   6466.447503
PE09  -7137.198833  15476.853590  24201.990657   6623.121089
PE11  -4541.734374  26096.168754 -13221.623718   5706.207345
PE12 -14910.677064   8492.437273 -24116.190482   5457.853662
PE14   2078.292405 -17057.933652  16067.288747   6492.208981
PE18  -6580.771054  21485.046401 -23473.240301   5769.903747
PE19 -26737.709785 -12362.172782  -2897.706960    -10.774461
PE21  -2210.392970 -18016.974775  23385.251494   -503.602525
PE24 -15762.689340  22331.962968 -11341.414119   6398.643263
PE25   2161.061847  18035.596470 -23359.804896   1988.684547
PE26  -8091.041350 -28029.110374  -5051.592404   5269.220287
PE27  16147.143146 -22344.638490  10787.760573    594.129255
PE30  25061.308148 -13823.162928  -7565.231335   5364.911324
PG01  13432.561327 -18646.930056  12879.861128   -111.781703
PG02 -14757.084763  -3385.800840 -21247.369555    -53.589132
PG03  20552.085078 -13516.688957  -9968.083288    158.386574
PG04  22904.659249  12971.655556   5079.348138    -35.200838
PG05 -25194.337810   1773.026324  -8662.235513     -0.323336
PG06  -8157.348092 -18101.399564 -17602.070288    336.517749
PG07   5517.030104 -25702.910288   1215.634741     91.769604
PG08  18830.374115   -311.939412  18843.188877   -121.539928
PG09    902.948972 -17984.491870 -19566.833086    494.009446
PG10   7905.373238  13353.386778  21611.866366    166.300167
PG11  11596.228597 -14708.775852  18360.907480   -701.742977
PG12 -23518.798235  10168.613699  -6825.342736    293.513907
PG13 -20317.124657  -8321.818593  14851.715432    -84.968857
PG14  18582.730840  19052.190772  -1201.727566    -95.984624
PG15 -17141.977551   5124.544571  19497.674845   -340.398756
PG16  24844.731819   1467.767206 -10020.676536     -0.146236
PG17 -13200.691924 -21702.497707   8363.995336    -33.780671
PG18  15388.074448  -9892.451417  18726.273520     77.374406
PG19 -18601.895126 -18748.153912  -2400.576557   -385.502960
PG20  -2358.395372  17250.729729  19904.480388    518.451378
PG21   -997.412864  26247.882675   4946.640796   -307.429679
PG22  24206.462072 -10669.701164  -1914.571023   -569.156911
PG23  10298.844246 -11505.649582 -21304.663232   -206.667639
PG24 -14737.386674  14626.742021  16253.377923    -57.926827
PG25 -14053.650879  15739.051683 -16163.107719   -674.133725
PG26  18828.093588   6891.320373 -17501.084700     34.050809
PG27  21927.235159   9625.566028  11692.225359    -15.644340
PG28  -4401.091790 -14377.300892  22520.553196    753.719485
PG29  -3232.999673  16478.978578 -20597.322423    339.931336
PG30  -1904.585406 -23815.862588  11439.262979     -2.071258
PG31   9634.375265  15577.966422 -19050.768210     80.965071
PG32  15573.730725  20580.907139   6522.847437   -363.776103
PJ01 -28355.425715  26786.909517  21079.361189   -276.811628
PJ02 -32031.915659  26577.206456  10320.530213      0.675409
PJ03 -22735.981398  19109.529398 -25312.359376      0.756397
PR01  14351.300249  11074.900022  17932.841882     34.700596
PR02  25150.553390   4417.825535    -60.169406    338.635363
PR03  19113.535882  -4550.867531 -16261.188775    148.349093
PR04   1368.689488 -10903.962350 -23010.325005    283.071621
PR05 -16213.871268 -10676.320582 -16532.041493     15.048176
PR07 -18695.920009   4807.775940  16679.544050    -51.191134
PR08  -2158.651428  10790.711813  23055.702656     20.563386
PR09 -16172.654357   4667.545552  19210.156339     37.750949
PR10 -18166.235241  16939.968150   5975.348917     35.336819
PR11  -9740.265801  20361.892456 -11906.032347    -46.504182
PR13  15557.178418  -4289.682992 -19762.652112    -16.628701
PR14  18075.001516 -16955.515484  -5992.263122     32.814589
PR15  12902.357933 -20642.222385   7802.212978    -18.932882
PR16  -3481.680992 -12413.200096  22015.765502    105.951445
PR17   7976.003146  -8619.104927  22658.959578    178.906885
PR18  -1401.487152 -21733.613029  13252.271982     27.040187
PR19  -9576.290164 -23371.177663  -3611.263792    -61.366154
PR20 -12712.521529 -10235.558234 -19581.890718   -358.452211
PR21  -7702.044173   8997.494629 -22585.783839    -13.503606
PR22   2749.922422  22826.491990 -11169.826534    -64.727796
PR23  11457.160463  21315.758038   8048.273928    189.580131
PR24  12811.831278   8739.132686  20230.309096   -173.546768
PR26 -13069.433690 -11594.574718 -18587.039266      3.497290
EOF
